#dP2022  6 23  0  0  0.00000000      96 __u+U ITR00 FIT  IAC
## 2215 345600.00000000   900.00000000 59753 0.0000000000000
+  116   C06C07C08C09C10C11C12C13C14C16C19C20C21C22C23C24C25
+        C26C27C28C29C30C32C33C34C35C36C37C38C39C40C41C42C43
+        C44C45C46E01E02E03E04E05E07E08E09E10E11E12E13E14E15
+        E18E19E21E24E25E26E27E30E31E33E34E36G01G02G03G04G05
+        G06G07G08G09G10G11G12G13G14G15G16G17G18G19G20G21G22
+        G23G24G25G26G27G28G29G30G31G32J02J03R01R02R03R04R05
+        R07R08R09R11R12R13R14R15R17R18R19R20R21R24  0  0  0
++         7 11  9  6 10  7  5  8  7  9  8  7  6  6  7  7  6
++         7  6  7  7  6  6  6  6  8  5  7  8  8  8  8  6  7
++         7  7  7  8  5  4  7  6  6  5  5  7  7  7  5  6  7
++         6  6  5  5  6  5  6  5  7  6  6  5  6  7  6  6  7
++         5  5  6  5  7  6  7  6  6  5  5  6  4  7  6  6  5
++         7  6  5  4  4  5  5  5  5  6  8  6  8  7  5  7  6
++         7  5  7  6  6  6  7  7  5  5  5  7  7  7  0  0  0
%c M  cc GPS ccc cccc cccc cccc cccc ccccc ccccc ccccc ccccc
%c cc cc ccc ccc cccc cccc cccc cccc ccccc ccccc ccccc ccccc
%f  0.0000000  0.000000000  0.00000000000  0.000000000000000
%f  0.0000000  0.000000000  0.00000000000  0.000000000000000
%i    0    0    0    0      0      0      0      0         0
%i    0    0    0    0      0      0      0      0         0
/* INFORMATION & ANALYSIS CENTER (IAC)      ULTRA-RAPID DATA
/* S/V CLOCKS ARE ALIGNED TO GNSS TIME                      
/* G:C1WC2W R:C1PC2P E:C1XC5X C:C2IC6I J:C1CC2S             
/* PCV:IGS14_2196 OL/AL:FES2004  NONE     YN ORB:CoN CLK:CoN
*  2022 06 23  9  0  0.00000000
PC06 -16486.842373  36147.043682 -14425.075078    247.615706
PC07  -1681.710051  36175.316414 -21463.969508   -335.966829
PC08  -8303.283806  19747.186477  36306.375153    374.798745
PC09 -12476.529235  35019.044914 -19986.182648   -910.088858
PC10   4352.037577  38196.942035 -16436.308877    124.231426
PC11 -20672.228351  10950.047552 -15132.853796    431.667080
PC12 -13800.407676  -7035.517771 -23182.437097   -592.758410
PC13  -1844.011045  22246.477221  35891.525081      3.980695
PC14 -16399.806335   1613.410014  22550.488618    513.150288
PC16 -19210.255052  35931.658926 -11189.592105    140.862383
PC19  11369.702524 -12032.442664 -22442.089692    -60.331087
PC20  18280.130427   7063.929483 -19837.465017   -965.479063
PC21 -14616.820670 -23241.510786   5096.165228   -539.664364
PC22  -2369.437011 -25013.036782 -12176.950745   -963.652338
PC23  -3708.174077  15958.540862 -22579.706793   -936.741275
PC24 -27437.554731  -4390.183382   2459.812030   -969.413796
PC25 -21444.702331   9399.728514 -15173.128219   -717.805343
PC26 -17874.596946 -13316.936248  16762.331357    719.512631
PC27   7627.374472  15386.077185  21974.187198    743.345132
PC28  -7912.454392  24239.123125  11333.086314     81.834292
PC29  18696.858520 -19609.850783   6669.614943    572.194525
PC30  18757.998271  -2406.025092  20502.629630    500.258002
PC32  14739.212816  23149.149123  -4997.239286   -970.814147
PC33 -11420.892862  11981.770212  22469.747657   7884.829971
PC34 -19161.309126   3462.989727 -20013.202458   -374.556028
PC35   7893.494089 -24667.870491 -10361.654622    333.589093
PC36  22054.622732  -8602.210115  14805.808304   -969.759148
PC37  16509.167712  14136.253392 -17493.069965   -910.749567
PC38 -16966.793282  19987.033134  33014.510323      5.156244
PC39 -20993.739559  36274.728314  -5400.182321     35.000280
PC40  -5889.700686  32550.301723 -26061.855090    279.738291
PC41   1996.712268  24820.256940  12644.303190    -24.165318
PC42 -18492.866741  -8170.751681  19291.143733   -958.175444
PC43 -19043.116045  19054.060496  -7338.070505   -916.539018
PC44  -8170.733135 -15313.722872 -21860.782464    701.404529
PC45   3342.979946 -15895.867119  22699.534475    790.762001
PC46  27709.685184   3325.943215   -935.141263   -394.108519
PE01 -22069.687355 -19241.278551   4349.215315   -501.590944
PE02  22173.342534  19168.585398  -4175.057787    307.467663
PE03  11827.386534  19293.509967 -19068.766543   -571.727218
PE04 -17181.429563   1772.446779  24049.040047  -1056.137583
PE05   -603.292639  29462.188112  -2760.016459   -169.536601
PE07  12469.031469 -22352.035884 -14869.077300   -681.048386
PE08  17031.121533  -2112.887788 -24112.066515   -551.463631
PE09 -12305.917677  22401.705579  14923.522072   -563.192405
PE10 -26950.958762  12202.500545   -916.329400   -521.580069
PE11 -22242.894531  17175.390828   9303.842288   3254.341947
PE12 -27216.282827   5411.750673 -10338.528970    -25.686117
PE13  22650.577426 -16959.225382  -8684.663597    429.443486
PE14   3110.603167 -30353.073611  -5621.467058  -1799.638541
PE15  27143.887884  -5396.525692  10491.137871    737.654698
PE18  -9676.844981  23386.307623  -3654.328913  -1296.658582
PE19 -10405.442047 -21419.497681  17593.004388  -5293.188353
PE21  -7229.354616 -21193.611336  19361.380807   -741.816840
PE24 -13840.082304  10336.420511 -24044.980625   -686.174312
PE25   6954.467412  21131.010596 -19518.886855   -578.584893
PE26   3870.946548 -18383.199580 -22879.742710  -1295.268416
PE27  12772.525209 -11194.461376  24248.387445   -328.583530
PE30  25309.632300   6171.859388  14056.001178   -615.337433
PE31 -25069.116229  -5305.842019 -14809.550009   -498.739706
PE33 -15611.338923  -9285.144805 -23377.866609   -455.363506
PE34  15803.582417   9119.885847  23295.692265   -523.559953
PE36  -4915.412568  18474.100633  22595.854198   -392.125319
PG01   -373.317845 -15169.957342 -22063.874335    335.541178
PG02 -19550.557947  15674.017362   9685.409955   -652.386947
PG03  -8835.797901 -20686.619914 -14327.335887   -287.143877
PG04    389.437341 -25355.073537   7753.956511   -153.992654
PG05  -5154.857015  14856.198794  21215.690396    -86.551714
PG06 -25649.427093   5551.689988  -4303.795241    355.259857
PG07 -17039.318782  -8658.983296  19050.509351    321.274166
PG08   4903.402217 -25901.802158    486.444706    -73.302841
PG09  -7878.586492 -19742.307681  15838.058069   -325.833500
PG10  22295.444778   9454.692145 -11096.989499   -465.722552
PG11 -21617.987750  12523.763307   8975.326488    -13.356215
PG12   4218.124008  20523.392552 -16656.022033   -235.477016
PG13 -13194.764554  21452.242900   7992.146360    335.151243
PG14 -22041.548469 -10930.795835 -10132.448980   -111.856347
PG15  -1662.413919  26333.379490   -143.618823    -51.015156
PG16  11290.286491  -9755.148321  21705.627844   -510.896101
PG17 -14326.724849  -3024.845243 -21728.368700    628.451342
PG18  16445.986695   8458.560634  19098.028765    134.099164
PG19 -16236.709027   5850.837714 -20381.273571    174.413603
PG20 -15474.691870   7528.818929  20175.894052    509.081784
PG21   9628.616975 -17078.744648 -16950.183647    161.300496
PG22  16093.255460  -9268.894590 -18502.416661    280.484155
PG23  20987.772139  16333.536935  -1185.786542    -29.504463
PG24  -3087.810625  17431.357241 -19988.516599    214.324823
PG25  16628.963531  20065.338481  -6112.118527    340.775933
PG26  19160.186013  -2092.174741  18316.194164    214.072360
PG27  12422.117451 -19630.374993  12290.725264    217.618112
PG28 -19631.169340  -3897.767996 -16832.691799    332.808329
PG29   6124.420630  19666.028117  16674.782222   -526.793171
PG30 -23823.763177  -1620.994563  11984.369137   -532.186152
PG31  25903.997230  -6705.052644  -1899.825861   -182.926774
PG32  15388.531012    -75.472972 -21483.950616   -158.213085
PJ02 -25131.172945  16177.816309 -25172.157612     -0.925302
PJ03 -26504.323582  32954.194537   4308.917377     -3.031211
PR01  -7127.662569 -24494.854015    584.140100     10.358926
PR02 -12053.228796 -13320.377792  18126.937179    522.074013
PR03  -9893.447111   5257.580408  22966.338590     58.930364
PR04  -2169.164655  20486.128812  15078.878291    147.801123
PR05   6594.276669  24626.432628  -1129.795626     95.094772
PR07   9641.967991  -5946.473931 -22809.268953     36.825617
PR08   2040.785109 -20602.711250 -14824.614430    -65.845369
PR09  23842.686138   8104.805511  -3776.448954     61.997976
PR11   8150.544579  -8858.746659  22499.582709     35.374077
PR12 -11668.615538 -12584.763462  18895.016093     18.987435
PR13 -23407.708940  -8730.424801   5149.693783    -23.878964
PR14 -21840.426632    672.626892 -13163.290825     25.142238
PR15  -7374.129179   9201.160081 -22596.458890     95.175628
PR17 -19715.048354  12705.463406  -9978.755764    537.353947
PR18 -15597.615582  19028.797681   6832.747292    121.219102
PR19  -4674.640460  15814.717761  19450.565312   -193.746197
PR20  12476.149560   2012.474421  22149.434805    -73.184111
PR21  19833.274954 -13597.645497   8542.450384   -311.725332
PR24 -13308.515388  -1417.679791 -21702.571015    100.079436
EOF
